{"type": "FeatureCollection", "features": [ {"type": "Feature", "properties": {"norad_id": 36011, "name": "IRIDIUM 33 DEB", "group": "iridium-33-debris", "lat": -29.550496488502205, "lon": -140.23559156179616, "alt_km": 749.7053185878049, "timestamp": "2025-12-07T11:27:50.391916+00:00", "meta": {"OBJECT_NAME": "IRIDIUM 33 DEB", "OBJECT_ID": "1997-051US", "EPOCH": "2025-11-27T22:48:02.153088", "MEAN_MOTION": 14.41259363, "ECCENTRICITY": 0.0016688, "INCLINATION": 86.3418, "RA_OF_ASC_NODE": 41.7752, "ARG_OF_PERICENTER": 268.8947, "MEAN_ANOMALY": 217.0188, "EPHEMERIS_TYPE": 0, "CLASSIFICATION_TYPE": "U", "NORAD_CAT_ID": 36011, "ELEMENT_SET_NO": 999, "REV_AT_EPOCH": 64327, "BSTAR": 0.00058853, "MEAN_MOTION_DOT": 1.923e-05, "MEAN_MOTION_DDOT": 0}, "tle": {"line1": "1 36011U 97051US  25331.95002492  .00001923  00000+0  58853-3 0  9994", "line2": "2 36011  86.3418  41.7752 0016688 268.8947 217.0188 14.41259363643279"}}, "geometry": {"type": "Point", "coordinates": [-140.23559156179616, -29.550496488502205]}}, {"type": "Feature", "properties": {"norad_id": 36012, "name": "IRIDIUM 33 DEB", "group": "iridium-33-debris", "lat": -16.74016131640741, "lon": 130.72823813186463, "alt_km": 814.2736485507294, "timestamp": "2025-12-07T11:27:50.391939+00:00", "meta": {"OBJECT_NAME": "IRIDIUM 33 DEB", "OBJECT_ID": "1997-051UT", "EPOCH": "2025-12-06T04:02:53.038752", "MEAN_MOTION": 14.18666574, "ECCENTRICITY": 0.02131994, "INCLINATION": 86.4443, "RA_OF_ASC_NODE": 310.1835, "ARG_OF_PERICENTER": 284.453, "MEAN_ANOMALY": 73.3086, "EPHEMERIS_TYPE": 0, "CLASSIFICATION_TYPE": "U", "NORAD_CAT_ID": 36012, "ELEMENT_SET_NO": 999, "REV_AT_EPOCH": 65391, "BSTAR": 0.011047902, "MEAN_MOTION_DOT": 0.0002881, "MEAN_MOTION_DDOT": 0}, "tle": {"line1": "1 36012U 97051UT  25340.16866943  .00028810  00000+0  11048-1 0  9994", "line2": "2 36012  86.4443 310.1835 0213199 284.4530  73.3086 14.18666574653914"}}, "geometry": {"type": "Point", "coordinates": [130.72823813186463, -16.74016131640741]}}, {"type": "Feature", "properties": {"norad_id": 36028, "name": "IRIDIUM 33 DEB", "group": "iridium-33-debris", "lat": -80.66804783877114, "lon": -73.87888704799838, "alt_km": 603.328395218452, "timestamp": "2025-12-07T11:27:50.391957+00:00", "meta": {"OBJECT_NAME": "IRIDIUM 33 DEB", "OBJECT_ID": "1997-051VK", "EPOCH": "2025-12-02T04:53:22.244352", "MEAN_MOTION": 14.94476089, "ECCENTRICITY": 0.0022096, "INCLINATION": 86.3209, "RA_OF_ASC_NODE": 311.6506, "ARG_OF_PERICENTER": 84.2868, "MEAN_ANOMALY": 276.0879, "EPHEMERIS_TYPE": 0, "CLASSIFICATION_TYPE": "U", "NORAD_CAT_ID": 36028, "ELEMENT_SET_NO": 999, "REV_AT_EPOCH": 86967, "BSTAR": 0.0026794, "MEAN_MOTION_DOT": 0.00029149, "MEAN_MOTION_DDOT": 0}, "tle": {"line1": "1 36028U 97051VK  25336.20372968  .00029149  00000+0  26794-2 0  9991", "line2": "2 36028  86.3209 311.6506 0022096  84.2868 276.0879 14.94476089869673"}}, "geometry": {"type": "Point", "coordinates": [-73.87888704799838, -80.66804783877114]}}, {"type": "Feature", "properties": {"norad_id": 36080, "name": "IRIDIUM 33 DEB", "group": "iridium-33-debris", "lat": -24.287873411723847, "lon": 8.617083253253805, "alt_km": 754.202539230133, "timestamp": "2025-12-07T11:27:50.391974+00:00", "meta": {"OBJECT_NAME": "IRIDIUM 33 DEB", "OBJECT_ID": "1997-051VM", "EPOCH": "2025-12-04T08:52:09.343776", "MEAN_MOTION": 14.46551411, "ECCENTRICITY": 0.0017324, "INCLINATION": 86.3204, "RA_OF_ASC_NODE": 11.6345, "ARG_OF_PERICENTER": 183.7015, "MEAN_ANOMALY": 176.4063, "EPHEMERIS_TYPE": 0, "CLASSIFICATION_TYPE": "U", "NORAD_CAT_ID": 36080, "ELEMENT_SET_NO": 999, "REV_AT_EPOCH": 47293, "BSTAR": 0.0013956, "MEAN_MOTION_DOT": 5.055e-05, "MEAN_MOTION_DDOT": 0}, "tle": {"line1": "1 36080U 97051VM  25338.36955259  .00005055  00000+0  13956-2 0  9994", "line2": "2 36080  86.3204  11.6345 0017324 183.7015 176.4063 14.46551411472938"}}, "geometry": {"type": "Point", "coordinates": [8.617083253253805, -24.287873411723847]}}, {"type": "Feature", "properties": {"norad_id": 36083, "name": "IRIDIUM 33 DEB", "group": "iridium-33-debris", "lat": 48.07157761428901, "lon": -147.6633342732852, "alt_km": 749.7185613037227, "timestamp": "2025-12-07T11:27:50.391990+00:00", "meta": {"OBJECT_NAME": "IRIDIUM 33 DEB", "OBJECT_ID": "1997-051VQ", "EPOCH": "2025-12-06T21:32:26.892672", "MEAN_MOTION": 14.43175138, "ECCENTRICITY": 0.00247889, "INCLINATION": 86.3442, "RA_OF_ASC_NODE": 36.6683, "ARG_OF_PERICENTER": 243.3344, "MEAN_ANOMALY": 116.5319, "EPHEMERIS_TYPE": 0, "CLASSIFICATION_TYPE": "U", "NORAD_CAT_ID": 36083, "ELEMENT_SET_NO": 999, "REV_AT_EPOCH": 85365, "BSTAR": 0.00098432537, "MEAN_MOTION_DOT": 3.337e-05, "MEAN_MOTION_DDOT": 0}, "tle": {"line1": "1 36083U 97051VQ  25340.89753348  .00003337  00000+0  98433-3 0  9998", "line2": "2 36083  86.3442  36.6683 0024788 243.3344 116.5319 14.43175138853653"}}, "geometry": {"type": "Point", "coordinates": [-147.6633342732852, 48.07157761428901]}}, {"type": "Feature", "properties": {"norad_id": 36390, "name": "IRIDIUM 33 DEB", "group": "iridium-33-debris", "lat": 83.38616127974333, "lon": 87.76457870852532, "alt_km": 640.9872799317936, "timestamp": "2025-12-07T11:27:50.392006+00:00", "meta": {"OBJECT_NAME": "IRIDIUM 33 DEB", "OBJECT_ID": "1997-051VU", "EPOCH": "2025-11-30T04:37:26.668128", "MEAN_MOTION": 14.73329322, "ECCENTRICITY": 0.00285998, "INCLINATION": 86.289, "RA_OF_ASC_NODE": 305.1428, "ARG_OF_PERICENTER": 206.0853, "MEAN_ANOMALY": 153.8925, "EPHEMERIS_TYPE": 0, "CLASSIFICATION_TYPE": "U", "NORAD_CAT_ID": 36390, "ELEMENT_SET_NO": 999, "REV_AT_EPOCH": 66077, "BSTAR": 0.001268982, "MEAN_MOTION_DOT": 8.29e-05, "MEAN_MOTION_DDOT": 0}, "tle": {"line1": "1 36390U 97051VU  25334.19266977  .00008290  00000+0  12690-2 0  9995", "line2": "2 36390  86.2890 305.1428 0028599 206.0853 153.8925 14.73329322660771"}}, "geometry": {"type": "Point", "coordinates": [87.76457870852532, 83.38616127974333]}}, {"type": "Feature", "properties": {"norad_id": 36483, "name": "IRIDIUM 33 DEB", "group": "iridium-33-debris", "lat": -66.26589050573031, "lon": -116.9791792590901, "alt_km": 748.9121470591099, "timestamp": "2025-12-07T11:27:50.392023+00:00", "meta": {"OBJECT_NAME": "IRIDIUM 33 DEB", "OBJECT_ID": "1997-051VZ", "EPOCH": "2025-12-06T22:42:02.671200", "MEAN_MOTION": 14.457778, "ECCENTRICITY": 0.00108094, "INCLINATION": 86.3798, "RA_OF_ASC_NODE": 54.9695, "ARG_OF_PERICENTER": 142.1812, "MEAN_ANOMALY": 218.0152, "EPHEMERIS_TYPE": 0, "CLASSIFICATION_TYPE": "U", "NORAD_CAT_ID": 36483, "ELEMENT_SET_NO": 999, "REV_AT_EPOCH": 65062, "BSTAR": 0.00091800132, "MEAN_MOTION_DOT": 3.275e-05, "MEAN_MOTION_DDOT": 0}, "tle": {"line1": "1 36483U 97051VZ  25340.94586425  .00003275  00000+0  91800-3 0  9990", "line2": "2 36483  86.3798  54.9695 0010809 142.1812 218.0152 14.45777800650623"}}, "geometry": {"type": "Point", "coordinates": [-116.9791792590901, -66.26589050573031]}}, {"type": "Feature", "properties": {"norad_id": 36490, "name": "IRIDIUM 33 DEB", "group": "iridium-33-debris", "lat": -69.75386654157134, "lon": 2.911748532325568, "alt_km": 652.9535026254989, "timestamp": "2025-12-07T11:27:50.392039+00:00", "meta": {"OBJECT_NAME": "IRIDIUM 33 DEB", "OBJECT_ID": "1997-051WG", "EPOCH": "2025-12-06T19:30:38.149920", "MEAN_MOTION": 14.7600652, "ECCENTRICITY": 0.00054864, "INCLINATION": 86.365, "RA_OF_ASC_NODE": 13.136, "ARG_OF_PERICENTER": 96.0006, "MEAN_ANOMALY": 264.1838, "EPHEMERIS_TYPE": 0, "CLASSIFICATION_TYPE": "U", "NORAD_CAT_ID": 36490, "ELEMENT_SET_NO": 999, "REV_AT_EPOCH": 86397, "BSTAR": 0.0026714204, "MEAN_MOTION_DOT": 0.00018448, "MEAN_MOTION_DDOT": 0}, "tle": {"line1": "1 36490U 97051WG  25340.81294155  .00018448  00000+0  26714-2 0  9999", "line2": "2 36490  86.3650  13.1360 0005486  96.0006 264.1838 14.76006520863976"}}, "geometry": {"type": "Point", "coordinates": [2.911748532325568, -69.75386654157134]}}, {"type": "Feature", "properties": {"norad_id": 36493, "name": "IRIDIUM 33 DEB", "group": "iridium-33-debris", "lat": 59.232548312404724, "lon": 20.16055529113586, "alt_km": 664.7419090004623, "timestamp": "2025-12-07T11:27:50.392056+00:00", "meta": {"OBJECT_NAME": "IRIDIUM 33 DEB", "OBJECT_ID": "1997-051WK", "EPOCH": "2025-12-04T20:54:22.682304", "MEAN_MOTION": 14.65078368, "ECCENTRICITY": 0.0011123, "INCLINATION": 86.3577, "RA_OF_ASC_NODE": 15.1759, "ARG_OF_PERICENTER": 30.554, "MEAN_ANOMALY": 329.6318, "EPHEMERIS_TYPE": 0, "CLASSIFICATION_TYPE": "U", "NORAD_CAT_ID": 36493, "ELEMENT_SET_NO": 999, "REV_AT_EPOCH": 74403, "BSTAR": 0.0027859, "MEAN_MOTION_DOT": 0.00015002, "MEAN_MOTION_DDOT": 0}, "tle": {"line1": "1 36493U 97051WK  25338.87109586  .00015002  00000+0  27859-2 0  9992", "line2": "2 36493  86.3577  15.1759 0011123  30.5540 329.6318 14.65078368744034"}}, "geometry": {"type": "Point", "coordinates": [20.16055529113586, 59.232548312404724]}}, {"type": "Feature", "properties": {"norad_id": 37548, "name": "IRIDIUM 33 DEB", "group": "iridium-33-debris", "lat": 30.74871232645935, "lon": -136.51637465239747, "alt_km": 711.0321323406106, "timestamp": "2025-12-07T11:27:50.392071+00:00", "meta": {"OBJECT_NAME": "IRIDIUM 33 DEB", "OBJECT_ID": "1997-051XH", "EPOCH": "2025-11-29T22:23:36.250944", "MEAN_MOTION": 14.5113469, "ECCENTRICITY": 0.00243457, "INCLINATION": 86.3524, "RA_OF_ASC_NODE": 48.9393, "ARG_OF_PERICENTER": 232.6782, "MEAN_ANOMALY": 127.2204, "EPHEMERIS_TYPE": 0, "CLASSIFICATION_TYPE": "U", "NORAD_CAT_ID": 37548, "ELEMENT_SET_NO": 999, "REV_AT_EPOCH": 65346, "BSTAR": 0.0012745087, "MEAN_MOTION_DOT": 5.093e-05, "MEAN_MOTION_DDOT": 0}, "tle": {"line1": "1 37548U 97051XH  25333.93305846  .00005093  00000+0  12745-2 0  9990", "line2": "2 37548  86.3524  48.9393 0024345 232.6782 127.2204 14.51134690653467"}}, "geometry": {"type": "Point", "coordinates": [-136.51637465239747, 30.74871232645935]}}]}